satname,norad_id,inclination_deg,eccentricity,mean_motion_rev_per_day,perigee_km,apogee_km,l1,l2
STARLINK-1255,45399,53.0425,0.0004705,15.47920768,419.6096255852299,426.00931621434756,1 45399U 20019AR  26047.79524578  .00100091  00000+0  18727-2 0  9995,2 45399  53.0425 202.9880 0004705 169.9709 190.1392 15.47920768327193
STARLINK-1260,45404,53.1615,0.0001459,15.30165903,474.31695988487354,476.3167977267094,1 45404U 20019AW  26047.73170894 -.00003410  00000+0 -10315-3 0  9999,2 45404  53.1615 226.5848 0001459  93.2655 266.8513 15.30165903326762
STARLINK-1263,45405,53.159,0.0001397,15.30193657,474.27659260951987,476.1914244693062,1 45405U 20019AX  26047.72010141  .00000941  00000+0  43914-4 0  9993,2 45405  53.1590 226.6683 0001397  96.3731 263.7429 15.30193657326762
STARLINK-1265,45406,53.1606,0.000143,15.3018939,474.2667152737795,476.2267830260371,1 45406U 20019AY  26047.80018013 -.00000214  00000+0  49075-5 0  9998,2 45406  53.1606 226.3751 0001430  80.3774 279.7389 15.30189390326774
STARLINK-1278,45408,53.0469,0.0004643,15.51498606,409.1970632363791,415.50270935899425,1 45408U 20019BA  26047.74582712  .00091959  00000+0  15190-2 0  9998,2 45408  53.0469 231.4474 0004643 131.9296 228.2109 15.51498606326700
STARLINK-1296,45412,53.1603,0.0001167,15.30187033,474.45399611259745,476.0535775222397,1 45412U 20019BE  26047.72853581  .00000982  00000+0  45300-4 0  9990,2 45412  53.1603 226.6093 0001167  85.1082 275.0052 15.30187033326769
STARLINK-1298,45413,53.0386,0.0006577,15.85827756,309.5935757878997,318.39640620885893,1 45413U 20019BF  26047.91668981  .00235725  00000+0  92148-3 0  9996,2 45413  53.0386 159.7805 0006577 285.2753 296.0426 15.85827756  5970
STARLINK-1309,45414,53.0685,5.23e-05,15.50766748,414.13090065382676,414.84140903582283,1 45414U 20019BG  26047.77278631  .00085585  00000+0  14532-2 0  9997,2 45414  53.0685 224.3395 0000523 338.3775  21.7211 15.50766748326780
STARLINK-1316,45415,53.1602,0.0001361,15.30189875,474.31255567981043,476.1780463421446,1 45415U 20019BH  26047.77383686 -.00000722  00000+0 -12242-4 0  9995,2 45415  53.1602 226.4478 0001361 105.4127 254.7024 15.30189875326790
STARLINK-1318,45416,53.0315,0.0007146,15.99002285,272.4298100488295,281.9415972568904,1 45416U 20019BJ  26047.91668981  .00543166  13853-3  10983-2 0  9990,2 45416  53.0315 145.3730 0007146 335.0293 350.9426 15.99002285  5897
STARLINK-1286,45417,53.048,0.0001968,15.49232527,417.63228100008655,420.30762229625543,1 45417U 20019BK  26047.77967030  .00036468  00000+0  66239-3 0  9996,2 45417  53.0480 231.0618 0001968  84.2337 275.8895 15.49232527326987
STARLINK-1308,45419,53.0536,0.0002306,15.43568008,434.01770457588736,437.160194983926,1 45419U 20019BM  26047.77107695  .00106029  00000+0  23008-2 0  9998,2 45419  53.0536 252.2484 0002306 146.8737 213.2413 15.43568008326435
STARLINK-1329,45531,53.0503,0.0004412,15.51942049,408.0609161426755,414.0517003178584,1 45531U 20025A   26047.91668981  .00066190  00000+0  10818-2 0  9995,2 45531  53.0503 181.6279 0004412 185.7339  85.5265 15.51942049  5890
STARLINK-1338,45532,53.0518,0.0004257,15.5070291,411.780876430671,417.5642745032237,1 45532U 20025B   26047.65333854  .00085438  00000+0  14537-2 0  9993,2 45532  53.0518 186.0681 0004257 240.6370 119.4213 15.50702910322135
STARLINK-1350,45535,53.0723,9.75e-05,15.35518696,458.7136008510288,460.046916716492,1 45535U 20025E   26047.70613748  .00013293  00000+0  38982-3 0  9996,2 45535  53.0723 131.6458 0000975  67.9769 292.1337 15.35518696322932
STARLINK-1362,45538,53.1597,0.0001274,15.29355311,476.86488075754005,478.61175778889174,1 45538U 20025H   26047.81727952  .00001267  00000+0  56245-4 0  9995,2 45538  53.1597 197.9144 0001274  81.0937 279.0208 15.29355311321980
STARLINK-1368,45540,53.1562,0.0001091,15.29337211,477.04443100280787,478.5403948007033,1 45540U 20025K   26047.91668981  .00048546  00000+0  16847-2 0  9998,2 45540  53.1562 197.8074 0001091  92.1462  30.8478 15.29337211  5833
STARLINK-1371,45542,53.0516,0.0003502,15.4376293,432.6294186147679,437.4013505449275,1 45542U 20025M   26047.79219303  .00034849  00000+0  76430-3 0  9992,2 45542  53.0516 188.9762 0003502 192.1996 167.8925 15.43762930322106
STARLINK-1372,45543,53.1622,0.000148,15.30187677,474.23756237115595,476.2661654748772,1 45543U 20025N   26047.61093007  .00000281  00000+0  21629-4 0  9999,2 45543  53.1622 198.9318 0001480  61.9392 298.1758 15.30187677321049
STARLINK-1373,45544,53.0516,0.0004195,15.46665455,423.6343134447161,429.34339453621396,1 45544U 20025P   26047.78928691  .00081090  00000+0  15902-2 0  9996,2 45544  53.0516 189.0718 0004195 267.5700  92.4826 15.46665455322100
STARLINK-1294,45551,53.0294,0.0009161,15.93973922,285.0652214176416,297.28473482395475,1 45551U 20025W   26047.91668981  .00389877  70648-4  10388-2 0  9999,2 45551  53.0294  81.5504 0009161  30.2817 305.8452 15.93973922  6043
STARLINK-1327,45555,53.0499,0.0003465,15.4984926,414.8120731381632,419.5212185647388,1 45555U 20025AA  26047.59236935  .00085062  00000+0  14919-2 0  9990,2 45555  53.0499 168.1421 0003465 329.2253  30.8551 15.49849260322370
STARLINK-1356,45564,53.0522,0.0003917,15.42582935,435.81933857522563,441.1594837057128,1 45564U 20025AK  26047.75224721  .00072425  00000+0  16344-2 0  9991,2 45564  53.0522 173.3415 0003917 313.5669  46.5010 15.42582935322311
STARLINK-1357,45565,53.0547,0.0001931,15.51181931,411.9626221753315,414.5854651203881,1 45565U 20025AL  26047.54490877  .00090750  00000+0  15168-2 0  9990,2 45565  53.0547 139.9578 0001931 336.4967  23.5953 15.51181931322778
STARLINK-1361,45567,53.0523,0.0005354,15.4401497,430.6265616528235,437.9212912728799,1 45567U 20025AN  26047.91668981  .00090739  00000+0  19441-2 0  9991,2 45567  53.0523 172.9450 0005354 316.7969 303.4550 15.44014970  5777
STARLINK-1363,45568,53.0459,0.0007501,15.71840935,348.5862175429811,358.68522297791696,1 45568U 20025AP  26047.91668981  .00054601  00000+0  41346-3 0  9990,2 45568  53.0459 141.0916 0007501 344.9255 254.9789 15.71840935  5993
STARLINK-1366,45569,53.0463,0.0007192,15.71441075,349.9353121574668,359.6199365531402,1 45569U 20025AQ  26047.91668981  .00049823  00000+0  38436-3 0  9997,2 45569  53.0463 141.7680 0007192 341.2645 220.7735 15.71441075  5997
STARLINK-1376,45570,53.1619,0.0001425,15.29354773,476.76296466157874,478.71688958580944,1 45570U 20025AR  26047.61103817  .00000845  00000+0  41625-4 0  9994,2 45570  53.1619 175.5876 0001425  83.2036 276.9126 15.29354773322276
STARLINK-1320,45572,53.0501,0.0007959,15.64199961,370.165388534685,380.9158926029422,1 45572U 20025AT  26047.50000682  .00064700  00000+0  66696-3 0  9994,2 45572  53.0501  89.9773 0007959 332.5257  27.5335 15.64199961323485
STARLINK-1321,45573,53.0518,0.0002261,15.44772102,430.5080048534255,433.58757041439276,1 45573U 20025AU  26047.62520389  .00079161  00000+0  16572-2 0  9993,2 45573  53.0518 159.0246 0002261 299.6708  60.4072 15.44772102322208
STARLINK-1331,45578,53.0549,0.0001537,15.44802685,430.91119334091945,433.00461651469504,1 45578U 20025AZ  26047.82630414  .00075737  00000+0  15850-2 0  9994,2 45578  53.0549 164.7271 0001537  44.7787 315.3342 15.44802685322458
STARLINK-1333,45580,53.1609,0.0001249,15.30195893,474.3713470033672,476.08331741355414,1 45580U 20025BB  26047.72731897  .00000287  00000+0  21806-4 0  9991,2 45580  53.1609 175.1760 0001249  87.1193 272.9951 15.30195893322297
STARLINK-1335,45581,53.0556,0.0001443,15.06395971,546.2245766917422,548.223235849292,1 45581U 20025BC  26047.69785531  .00000224  00000+0  33940-4 0  9995,2 45581  53.0556 170.8539 0001443 108.9652 251.1493 15.06395971322340
STARLINK-1337,45582,53.0547,0.0001774,15.54299851,402.9854554925623,405.3918246296571,1 45582U 20025BD  26047.81325854  .00093906  00000+0  14020-2 0  9993,2 45582  53.0547 162.8656 0001774  37.9377 322.1757 15.54299851322462
STARLINK-1347,45586,53.0474,0.0005139,15.50004776,413.22023833064486,420.2039842472277,1 45586U 20025BH  26047.62310083  .00080591  00000+0  14066-2 0  9990,2 45586  53.0474 130.8741 0005139 319.2265  40.8358 15.50004776322890
STARLINK-1364,45589,53.0535,0.0004579,15.45857847,425.741700935474,431.9755475281454,1 45589U 20025BL  26047.69927885  .00076603  00000+0  15457-2 0  9998,2 45589  53.0535 163.5520 0004579 334.7434  25.3348 15.45857847322443
STARLINK-1365,45590,53.0534,1.01e-05,15.4279028,437.8098036884012,437.9474872044393,1 45590U 20025BM  26047.69602502  .00018985  00000+0  43536-3 0  9995,2 45590  53.0534 193.3630 0000101 203.2545 156.8455 15.42790280322046
STARLINK-1443,45660,53.0546,0.0001317,15.06396841,546.309170155032,548.1333095154041,1 45660U 20035D   26047.79093190 -.00002133  00000+0 -12437-3 0  9998,2 45660  53.0546 160.4368 0001317 101.2496 258.8641 15.06396841315588
STARLINK-1446,45663,53.0242,0.0001803,15.41951904,439.1196764125334,441.5784224819645,1 45663U 20035G   26047.42798317  .00020052  00000+0  47225-3 0  9995,2 45663  53.0242 100.2972 0001803 178.3965 181.7045 15.41951904316391
STARLINK-1448,45665,53.0531,0.0005241,15.48091148,418.7463476466419,425.8745766764805,1 45665U 20035J   26047.76053726  .00110796  00000+0  20569-2 0  9998,2 45665  53.0531 153.1681 0005241   4.9002 355.2055 15.48091148315675
STARLINK-1451,45668,53.0523,9.81e-05,15.08960846,538.6954279064339,540.0526435716456,1 45668U 20035M   26047.69173870  .00027388  00000+0  17264-2 0  9998,2 45668  53.0523 160.7783 0000981 228.4253 131.6653 15.08960846315578
STARLINK-1452,45669,53.0335,0.0007593,15.41633589,436.1096109516848,446.4655891493203,1 45669U 20035N   26047.69698451  .00067448  00000+0  15717-2 0  9998,2 45669  53.0335 121.4775 0007593 328.8116  31.2436 15.41633589316128
STARLINK-1453,45670,53.0493,0.0007632,15.48229258,416.7162400831212,427.09582576857883,1 45670U 20035P   26047.55944681  .00098287  00000+0  18188-2 0  9994,2 45670  53.0493 114.7509 0007632 323.4701  36.5785 15.48229258316092
